{
  "type": "FeatureCollection",
  "name": "ATAP Sample Area 01 Building Footprints",
  "metadata": {
    "dataset": "ATAP Sample Area 01",
    "title": "Manually Delineated Building Footprints",
    "creator": "Enygma",
    "creation_method": "Manual delineation by Enygma",
    "provenance_statement": "Building footprints manually delineated by Enygma for ATAP research and sample data publication.",
    "license": "CC-BY-4.0",
    "license_url": "https://creativecommons.org/licenses/by/4.0/",
    "attribution": "ATAP Sample Area 01, building footprints created by Enygma, CC BY 4.0",
    "coordinate_reference_system": "WGS 84 longitude and latitude (RFC 7946)",
    "location_disclosure": "Original geospatial coordinates retained.",
    "geometry_changes_in_this_release": "None. Geometries and original feature identifiers preserved; provenance metadata added."
  },
  "features": [
    {
      "type": "Feature",
      "properties": {
        "OBJECTID": 920906,
        "JNSBGN": 101010201,
        "FGSBGN": 1401,
        "REMARK": "GD",
        "id": 920906,
        "name": "Int. Polygon 2",
        "creator": "Enygma",
        "creation_method": "manual_delineation"
      },
      "geometry": {
        "type": "Polygon",
        "coordinates": [
          [
            [
              119.41468979577104,
              -5.149956033181388
            ],
            [
              119.41485750377399,
              -5.14996713719413
            ],
            [
              119.41485920277589,
              -5.149941354193693
            ],
            [
              119.41486466578223,
              -5.149858426192273
            ],
            [
              119.41480063878046,
              -5.149863020187637
            ],
            [
              119.41479991378114,
              -5.149852872187323
            ],
            [
              119.41470657077947,
              -5.14984669118027
            ],
            [
              119.41470314177553,
              -5.149898749181192
            ],
            [
              119.41469361077536,
              -5.149898118180417
            ],
            [
              119.41468979577104,
              -5.149956033181388
            ]
          ]
        ]
      }
    },
    {
      "type": "Feature",
      "properties": {
        "OBJECTID": 920942,
        "JNSBGN": 101010201,
        "FGSBGN": 1401,
        "REMARK": "GD",
        "id": 920942,
        "creator": "Enygma",
        "creation_method": "manual_delineation"
      },
      "geometry": {
        "type": "Polygon",
        "coordinates": [
          [
            [
              119.4147973467837,
              -5.149816906186307
            ],
            [
              119.41479991378114,
              -5.149852872187323
            ],
            [
              119.41480063878046,
              -5.149863020187637
            ],
            [
              119.41486466578223,
              -5.149858426192273
            ],
            [
              119.41493303678422,
              -5.149853521197201
            ],
            [
              119.4149591127848,
              -5.149851649199124
            ],
            [
              119.41496054678345,
              -5.149871730199727
            ],
            [
              119.4150030547846,
              -5.149868679202749
            ],
            [
              119.4150022997854,
              -5.149858107202564
            ],
            [
              119.415001662786,
              -5.149849184202206
            ],
            [
              119.41503523678689,
              -5.149846775204716
            ],
            [
              119.41503175679047,
              -5.14979800620336
            ],
            [
              119.4147973467837,
              -5.149816906186307
            ]
          ]
        ]
      }
    },
    {
      "type": "Feature",
      "properties": {
        "OBJECTID": 921005,
        "JNSBGN": 101010201,
        "FGSBGN": 1401,
        "REMARK": "GD",
        "id": 921005,
        "creator": "Enygma",
        "creation_method": "manual_delineation"
      },
      "geometry": {
        "type": "Polygon",
        "coordinates": [
          [
            [
              119.41502943479965,
              -5.149674399200578
            ],
            [
              119.41504021778897,
              -5.149820703204496
            ],
            [
              119.41518948279318,
              -5.149809645215327
            ],
            [
              119.41518291879962,
              -5.149720579212904
            ],
            [
              119.41514515579851,
              -5.149723377210212
            ],
            [
              119.41514093780268,
              -5.149666138208627
            ],
            [
              119.41502943479965,
              -5.149674399200578
            ]
          ]
        ]
      }
    },
    {
      "type": "Feature",
      "properties": {
        "OBJECTID": 921006,
        "JNSBGN": 101010201,
        "FGSBGN": 1401,
        "REMARK": "GD",
        "id": 921006,
        "creator": "Enygma",
        "creation_method": "manual_delineation"
      },
      "geometry": {
        "type": "Polygon",
        "coordinates": [
          [
            [
              119.4147623127887,
              -5.149737475182065
            ],
            [
              119.41476478778499,
              -5.149790517183349
            ],
            [
              119.41478314578534,
              -5.14979009618467
            ],
            [
              119.41478378378336,
              -5.149818000185412
            ],
            [
              119.4147973467837,
              -5.149816906186307
            ],
            [
              119.41503175679047,
              -5.14979800620336
            ],
            [
              119.41503473079054,
              -5.149797766203556
            ],
            [
              119.41503134179587,
              -5.149724583201789
            ],
            [
              119.41499841979503,
              -5.14972733719936
            ],
            [
              119.41499486279808,
              -5.149684584198183
            ],
            [
              119.41491973079592,
              -5.14969086719272
            ],
            [
              119.41491814979724,
              -5.149671863192217
            ],
            [
              119.41477420179436,
              -5.149664891181317
            ],
            [
              119.41477753078925,
              -5.149736766183122
            ],
            [
              119.4147623127887,
              -5.149737475182065
            ]
          ]
        ]
      }
    },
    {
      "type": "Feature",
      "properties": {
        "OBJECTID": 921088,
        "JNSBGN": 101010201,
        "FGSBGN": 1401,
        "REMARK": "GD",
        "id": 921088,
        "creator": "Enygma",
        "creation_method": "manual_delineation"
      },
      "geometry": {
        "type": "Polygon",
        "coordinates": [
          [
            [
              119.41468561179913,
              -5.149575219172823
            ],
            [
              119.41471455179979,
              -5.149575207174972
            ],
            [
              119.41471457579554,
              -5.149632326176145
            ],
            [
              119.41504407780225,
              -5.149643161200892
            ],
            [
              119.41504406680419,
              -5.149616677200344
            ],
            [
              119.41499045280298,
              -5.149616699196359
            ],
            [
              119.41499043780559,
              -5.149580400195585
            ],
            [
              119.41500223480591,
              -5.149580395196462
            ],
            [
              119.41500221580937,
              -5.149533829195414
            ],
            [
              119.41521477381413,
              -5.149533741211211
            ],
            [
              119.41521474681907,
              -5.149468135209772
            ],
            [
              119.41474669980934,
              -5.149454572174709
            ],
            [
              119.41471563880873,
              -5.1494545841724
            ],
            [
              119.41471567080289,
              -5.149533487174162
            ],
            [
              119.41468752780224,
              -5.149533498172072
            ],
            [
              119.41468561179913,
              -5.149575219172823
            ]
          ]
        ]
      }
    },
    {
      "type": "Feature",
      "properties": {
        "OBJECTID": 921094,
        "JNSBGN": 101010102,
        "FGSBGN": 204,
        "REMARK": "GD",
        "id": 921094,
        "creator": "Enygma",
        "creation_method": "manual_delineation"
      },
      "geometry": {
        "type": "Polygon",
        "coordinates": [
          [
            [
              119.41530911980679,
              -5.149663009221071
            ],
            [
              119.41553357081128,
              -5.149671544237941
            ],
            [
              119.41553504181412,
              -5.149632682237191
            ],
            [
              119.41556434581463,
              -5.149633796239394
            ],
            [
              119.41556998582591,
              -5.149484696236583
            ],
            [
              119.4155467368254,
              -5.149483812234851
            ],
            [
              119.41554823282829,
              -5.149444257234118
            ],
            [
              119.41546648582674,
              -5.149441149227979
            ],
            [
              119.41546592082568,
              -5.149456093228253
            ],
            [
              119.41531716182264,
              -5.149450436217048
            ],
            [
              119.41530911980679,
              -5.149663009221071
            ]
          ]
        ]
      }
    },
    {
      "type": "Feature",
      "properties": {
        "OBJECTID": 921236,
        "JNSBGN": 101010201,
        "FGSBGN": 1401,
        "REMARK": "GD",
        "id": 921236,
        "creator": "Enygma",
        "creation_method": "manual_delineation"
      },
      "geometry": {
        "type": "Polygon",
        "coordinates": [
          [
            [
              119.41504885285318,
              -5.148955278186314
            ],
            [
              119.41505004484948,
              -5.149005899187515
            ],
            [
              119.41509999685073,
              -5.149004902191215
            ],
            [
              119.41509899085436,
              -5.148954276190026
            ],
            [
              119.41504885285318,
              -5.148955278186314
            ]
          ]
        ]
      }
    },
    {
      "type": "Feature",
      "properties": {
        "OBJECTID": 921248,
        "JNSBGN": 101010102,
        "FGSBGN": 204,
        "REMARK": "GD",
        "id": 921248,
        "creator": "Enygma",
        "creation_method": "manual_delineation"
      },
      "geometry": {
        "type": "Polygon",
        "coordinates": [
          [
            [
              119.41531130986155,
              -5.14892202920511
            ],
            [
              119.4153160398548,
              -5.149015315207479
            ],
            [
              119.41544817485831,
              -5.149008581217223
            ],
            [
              119.41544789185879,
              -5.149002977217058
            ],
            [
              119.41552076886072,
              -5.148999263222357
            ],
            [
              119.41551937686256,
              -5.148971810221692
            ],
            [
              119.41553274186298,
              -5.148971129222614
            ],
            [
              119.41552810386972,
              -5.148879627220352
            ],
            [
              119.41549993086886,
              -5.148881063218228
            ],
            [
              119.41549915087009,
              -5.148865666217804
            ],
            [
              119.41534183586587,
              -5.148873683206325
            ],
            [
              119.41534420186247,
              -5.148920352207555
            ],
            [
              119.41531130986155,
              -5.14892202920511
            ]
          ]
        ]
      }
    },
    {
      "type": "Feature",
      "properties": {
        "OBJECTID": 921250,
        "JNSBGN": 101010201,
        "FGSBGN": 1401,
        "REMARK": "GD",
        "id": 921250,
        "creator": "Enygma",
        "creation_method": "manual_delineation"
      },
      "geometry": {
        "type": "Polygon",
        "coordinates": [
          [
            [
              119.41509779285887,
              -5.148893984188613
            ],
            [
              119.41509899085436,
              -5.148954276190026
            ],
            [
              119.41509999685073,
              -5.149004902191215
            ],
            [
              119.41510019085001,
              -5.149014690191453
            ],
            [
              119.41510806485016,
              -5.149014532192021
            ],
            [
              119.41520630085249,
              -5.149012571199298
            ],
            [
              119.41525132785367,
              -5.149011672202641
            ],
            [
              119.41524840286452,
              -5.148864449199212
            ],
            [
              119.41516681386244,
              -5.148866079193137
            ],
            [
              119.41516734086053,
              -5.148892595193725
            ],
            [
              119.41509779285887,
              -5.148893984188613
            ]
          ]
        ]
      }
    },
    {
      "type": "Feature",
      "properties": {
        "OBJECTID": 921253,
        "JNSBGN": 101010201,
        "FGSBGN": 1401,
        "REMARK": "GD",
        "id": 921253,
        "creator": "Enygma",
        "creation_method": "manual_delineation"
      },
      "geometry": {
        "type": "Polygon",
        "coordinates": [
          [
            [
              119.41453317984778,
              -5.148869188146171
            ],
            [
              119.41453818284096,
              -5.148962494148566
            ],
            [
              119.41457686684198,
              -5.148961722151359
            ],
            [
              119.41457425385164,
              -5.148830206148349
            ],
            [
              119.41453659085073,
              -5.14883095814554
            ],
            [
              119.41453734884797,
              -5.148869104146473
            ],
            [
              119.41453317984778,
              -5.148869188146171
            ]
          ]
        ]
      }
    },
    {
      "type": "Feature",
      "properties": {
        "OBJECTID": 921257,
        "JNSBGN": 101010201,
        "FGSBGN": 1401,
        "REMARK": "GD",
        "id": 921257,
        "creator": "Enygma",
        "creation_method": "manual_delineation"
      },
      "geometry": {
        "type": "Polygon",
        "coordinates": [
          [
            [
              119.41473310585664,
              -5.148812577159831
            ],
            [
              119.41473572984687,
              -5.148944714162817
            ],
            [
              119.41482606584908,
              -5.148942910169525
            ],
            [
              119.4148248108537,
              -5.148879729168068
            ],
            [
              119.41482332785915,
              -5.148805086166287
            ],
            [
              119.41473310585664,
              -5.148812577159831
            ]
          ]
        ]
      }
    },
    {
      "type": "Feature",
      "properties": {
        "OBJECTID": 921259,
        "JNSBGN": 101010201,
        "FGSBGN": 1401,
        "REMARK": "GD",
        "id": 921259,
        "creator": "Enygma",
        "creation_method": "manual_delineation"
      },
      "geometry": {
        "type": "Polygon",
        "coordinates": [
          [
            [
              119.41482332785915,
              -5.148805086166287
            ],
            [
              119.4148248108537,
              -5.148879729168068
            ],
            [
              119.41489022585529,
              -5.148878423172885
            ],
            [
              119.41490093985556,
              -5.148878209173659
            ],
            [
              119.41489995185921,
              -5.148828458172473
            ],
            [
              119.41489752385911,
              -5.148828513172299
            ],
            [
              119.41489584786135,
              -5.148797225171482
            ],
            [
              119.41483510885963,
              -5.148802268167136
            ],
            [
              119.41483525985952,
              -5.148804095167164
            ],
            [
              119.41482332785915,
              -5.148805086166287
            ]
          ]
        ]
      }
    },
    {
      "type": "Feature",
      "properties": {
        "OBJECTID": 921262,
        "JNSBGN": 101010201,
        "FGSBGN": 1401,
        "REMARK": "GD",
        "id": 921262,
        "creator": "Enygma",
        "creation_method": "manual_delineation"
      },
      "geometry": {
        "type": "Polygon",
        "coordinates": [
          [
            [
              119.41508812486701,
              -5.148779955185394
            ],
            [
              119.41509039285863,
              -5.148894132188076
            ],
            [
              119.41509779285887,
              -5.148893984188613
            ],
            [
              119.41516734086053,
              -5.148892595193725
            ],
            [
              119.41516681386244,
              -5.148866079193137
            ],
            [
              119.41516507286892,
              -5.148778418191133
            ],
            [
              119.41508812486701,
              -5.148779955185394
            ]
          ]
        ]
      }
    },
    {
      "type": "Feature",
      "properties": {
        "OBJECTID": 921269,
        "JNSBGN": 101010201,
        "FGSBGN": 1401,
        "REMARK": "GD",
        "id": 921269,
        "creator": "Enygma",
        "creation_method": "manual_delineation"
      },
      "geometry": {
        "type": "Polygon",
        "coordinates": [
          [
            [
              119.41471144886115,
              -5.148743225156658
            ],
            [
              119.41471728485611,
              -5.148813891158613
            ],
            [
              119.41473310585664,
              -5.148812577159831
            ],
            [
              119.41482332785915,
              -5.148805086166287
            ],
            [
              119.41483525985952,
              -5.148804095167164
            ],
            [
              119.41483510885963,
              -5.148802268167136
            ],
            [
              119.41482942286456,
              -5.148733429165206
            ],
            [
              119.41471144886115,
              -5.148743225156658
            ]
          ]
        ]
      }
    },
    {
      "type": "Feature",
      "properties": {
        "OBJECTID": 921273,
        "JNSBGN": 101010201,
        "FGSBGN": 1401,
        "REMARK": "GD",
        "id": 921273,
        "creator": "Enygma",
        "creation_method": "manual_delineation"
      },
      "geometry": {
        "type": "Polygon",
        "coordinates": [
          [
            [
              119.41457578885759,
              -5.148750734146735
            ],
            [
              119.41458017185369,
              -5.148803804148164
            ],
            [
              119.41458048685352,
              -5.14880761714832
            ],
            [
              119.41459763585398,
              -5.148806194149534
            ],
            [
              119.41459908185269,
              -5.14882370415005
            ],
            [
              119.41471728485611,
              -5.148813891158613
            ],
            [
              119.41471144886115,
              -5.148743225156658
            ],
            [
              119.41470844286381,
              -5.148706835155652
            ],
            [
              119.41458934186038,
              -5.148716723146944
            ],
            [
              119.414592039858,
              -5.148749385147891
            ],
            [
              119.41457578885759,
              -5.148750734146735
            ]
          ]
        ]
      }
    },
    {
      "type": "Feature",
      "properties": {
        "OBJECTID": 921278,
        "JNSBGN": 101010201,
        "FGSBGN": 1401,
        "REMARK": "GD",
        "id": 921278,
        "creator": "Enygma",
        "creation_method": "manual_delineation"
      },
      "geometry": {
        "type": "Polygon",
        "coordinates": [
          [
            [
              119.41508602587487,
              -5.148674265182991
            ],
            [
              119.41508812486701,
              -5.148779955185394
            ],
            [
              119.41516507286892,
              -5.148778418191133
            ],
            [
              119.41524302087078,
              -5.148776861196944
            ],
            [
              119.4152475078709,
              -5.148776772197177
            ],
            [
              119.41524549687837,
              -5.14867549719489
            ],
            [
              119.41524540887868,
              -5.148671082194774
            ],
            [
              119.41508602587487,
              -5.148674265182991
            ]
          ]
        ]
      }
    },
    {
      "type": "Feature",
      "properties": {
        "OBJECTID": 921279,
        "JNSBGN": 101010201,
        "FGSBGN": 1401,
        "REMARK": "GD",
        "id": 921279,
        "creator": "Enygma",
        "creation_method": "manual_delineation"
      },
      "geometry": {
        "type": "Polygon",
        "coordinates": [
          [
            [
              119.4152453468789,
              -5.148667951194708
            ],
            [
              119.41524540887868,
              -5.148671082194774
            ],
            [
              119.41524549687837,
              -5.14867549719489
            ],
            [
              119.41524581587841,
              -5.148675477194909
            ],
            [
              119.4152453468789,
              -5.148667951194708
            ]
          ]
        ]
      }
    },
    {
      "type": "Feature",
      "properties": {
        "OBJECTID": 921282,
        "JNSBGN": 101010201,
        "FGSBGN": 1401,
        "REMARK": "GD",
        "id": 921282,
        "creator": "Enygma",
        "creation_method": "manual_delineation"
      },
      "geometry": {
        "type": "Polygon",
        "coordinates": [
          [
            [
              119.41524302087078,
              -5.148776861196944
            ],
            [
              119.4152482268647,
              -5.14886029719912
            ],
            [
              119.4153345638672,
              -5.148854882205417
            ],
            [
              119.41533311286888,
              -5.148831619204747
            ],
            [
              119.41543968387171,
              -5.148824935212593
            ],
            [
              119.4154382888733,
              -5.148802570212017
            ],
            [
              119.4155136388754,
              -5.148797844217483
            ],
            [
              119.41550936788036,
              -5.148729384215696
            ],
            [
              119.41549639788009,
              -5.148730198214729
            ],
            [
              119.41549321988371,
              -5.148679259213345
            ],
            [
              119.41541872988174,
              -5.14868393120794
            ],
            [
              119.41541753088299,
              -5.148664708207441
            ],
            [
              119.41524581587841,
              -5.148675477194909
            ],
            [
              119.41524549687837,
              -5.14867549719489
            ],
            [
              119.4152475078709,
              -5.148776772197177
            ],
            [
              119.41524302087078,
              -5.148776861196944
            ]
          ]
        ]
      }
    },
    {
      "type": "Feature",
      "properties": {
        "OBJECTID": 921291,
        "JNSBGN": 101010201,
        "FGSBGN": 1401,
        "REMARK": "GD",
        "id": 921291,
        "creator": "Enygma",
        "creation_method": "manual_delineation"
      },
      "geometry": {
        "type": "Polygon",
        "coordinates": [
          [
            [
              119.41489995185921,
              -5.148828458172473
            ],
            [
              119.41490093985556,
              -5.148878209173659
            ],
            [
              119.41490133085404,
              -5.14889790717415
            ],
            [
              119.41509039285863,
              -5.148894132188076
            ],
            [
              119.41508812486701,
              -5.148779955185394
            ],
            [
              119.41508602587487,
              -5.148674265182991
            ],
            [
              119.4150840768821,
              -5.148576165180678
            ],
            [
              119.41498715787971,
              -5.148578101173585
            ],
            [
              119.41500084586157,
              -5.148826178180004
            ],
            [
              119.41489995185921,
              -5.148828458172473
            ]
          ]
        ]
      }
    },
    {
      "type": "Feature",
      "properties": {
        "OBJECTID": 921292,
        "JNSBGN": 101010201,
        "FGSBGN": 1401,
        "REMARK": "GD",
        "id": 921292,
        "creator": "Enygma",
        "creation_method": "manual_delineation"
      },
      "geometry": {
        "type": "Polygon",
        "coordinates": [
          [
            [
              119.41456144987073,
              -5.14856812414169
            ],
            [
              119.41457382985989,
              -5.148718011145835
            ],
            [
              119.41458934186038,
              -5.148716723146944
            ],
            [
              119.41470844286381,
              -5.148706835155652
            ],
            [
              119.41469606287465,
              -5.148556948151422
            ],
            [
              119.41456144987073,
              -5.14856812414169
            ]
          ]
        ]
      }
    },
    {
      "type": "Feature",
      "properties": {
        "OBJECTID": 921294,
        "JNSBGN": 101010201,
        "FGSBGN": 1401,
        "REMARK": "GD",
        "id": 921294,
        "creator": "Enygma",
        "creation_method": "manual_delineation"
      },
      "geometry": {
        "type": "Polygon",
        "coordinates": [
          [
            [
              119.41508348088426,
              -5.148546177179989
            ],
            [
              119.4150840768821,
              -5.148576165180678
            ],
            [
              119.41508602587487,
              -5.148674265182991
            ],
            [
              119.41524540887868,
              -5.148671082194774
            ],
            [
              119.4152453468789,
              -5.148667951194708
            ],
            [
              119.41524286488807,
              -5.148542995191774
            ],
            [
              119.41523755788805,
              -5.14854310119139
            ],
            [
              119.41518949788679,
              -5.148544060187827
            ],
            [
              119.41519004288483,
              -5.148571446188511
            ],
            [
              119.41511862188305,
              -5.14857287218326
            ],
            [
              119.4151180788851,
              -5.148545487182578
            ],
            [
              119.41508348088426,
              -5.148546177179989
            ]
          ]
        ]
      }
    },
    {
      "type": "Feature",
      "properties": {
        "OBJECTID": 921295,
        "JNSBGN": 101010201,
        "FGSBGN": 1401,
        "REMARK": "GD",
        "id": 921295,
        "creator": "Enygma",
        "creation_method": "manual_delineation"
      },
      "geometry": {
        "type": "Polygon",
        "coordinates": [
          [
            [
              119.41469206987809,
              -5.148508605150068
            ],
            [
              119.41469606287465,
              -5.148556948151422
            ],
            [
              119.41470844286381,
              -5.148706835155652
            ],
            [
              119.41471144886115,
              -5.148743225156658
            ],
            [
              119.41482942286456,
              -5.148733429165206
            ],
            [
              119.41481004488159,
              -5.148498809158706
            ],
            [
              119.41469206987809,
              -5.148508605150068
            ]
          ]
        ]
      }
    },
    {
      "type": "Feature",
      "properties": {
        "OBJECTID": 921298,
        "JNSBGN": 101010201,
        "FGSBGN": 1401,
        "REMARK": "GD",
        "id": 921298,
        "creator": "Enygma",
        "creation_method": "manual_delineation"
      },
      "geometry": {
        "type": "Polygon",
        "coordinates": [
          [
            [
              119.4148091258823,
              -5.148487681158365
            ],
            [
              119.41481004488159,
              -5.148498809158706
            ],
            [
              119.41482942286456,
              -5.148733429165206
            ],
            [
              119.41483510885963,
              -5.148802268167136
            ],
            [
              119.41489584786135,
              -5.148797225171482
            ],
            [
              119.41488342488455,
              -5.148481511163777
            ],
            [
              119.4148091258823,
              -5.148487681158365
            ]
          ]
        ]
      }
    },
    {
      "type": "Feature",
      "properties": {
        "OBJECTID": 921300,
        "JNSBGN": 101010201,
        "FGSBGN": 1401,
        "REMARK": "GD",
        "id": 921300,
        "creator": "Enygma",
        "creation_method": "manual_delineation"
      },
      "geometry": {
        "type": "Polygon",
        "coordinates": [
          [
            [
              119.41488288888551,
              -5.14846790216347
            ],
            [
              119.41488342488455,
              -5.148481511163777
            ],
            [
              119.41489584786135,
              -5.148797225171482
            ],
            [
              119.41489752385911,
              -5.148828513172299
            ],
            [
              119.41489995185921,
              -5.148828458172473
            ],
            [
              119.41500084586157,
              -5.148826178180004
            ],
            [
              119.41498715787971,
              -5.148578101173585
            ],
            [
              119.41498092688785,
              -5.148465183170653
            ],
            [
              119.41493924288697,
              -5.14846495416753
            ],
            [
              119.41494135888342,
              -5.148514418168769
            ],
            [
              119.41490469688243,
              -5.148514943166007
            ],
            [
              119.41490297088596,
              -5.14846702416487
            ],
            [
              119.41488288888551,
              -5.14846790216347
            ]
          ]
        ]
      }
    },
    {
      "type": "Feature",
      "properties": {
        "OBJECTID": 921301,
        "JNSBGN": 101010201,
        "FGSBGN": 1401,
        "REMARK": "GD",
        "id": 921301,
        "creator": "Enygma",
        "creation_method": "manual_delineation"
      },
      "geometry": {
        "type": "Polygon",
        "coordinates": [
          [
            [
              119.41523150789499,
              -5.148446135188891
            ],
            [
              119.41523755788805,
              -5.14854310119139
            ],
            [
              119.41524286488807,
              -5.148542995191774
            ],
            [
              119.4152453468789,
              -5.148667951194708
            ],
            [
              119.41524581587841,
              -5.148675477194909
            ],
            [
              119.41541753088299,
              -5.148664708207441
            ],
            [
              119.41550299288538,
              -5.148659349213678
            ],
            [
              119.41549879889028,
              -5.148592111211938
            ],
            [
              119.41545381588908,
              -5.148594933208623
            ],
            [
              119.41544622489779,
              -5.148473265205381
            ],
            [
              119.41529180289366,
              -5.148482950194114
            ],
            [
              119.41528927989657,
              -5.148442511193075
            ],
            [
              119.41523150789499,
              -5.148446135188891
            ]
          ]
        ]
      }
    },
    {
      "type": "Feature",
      "properties": {
        "OBJECTID": 998984,
        "JNSBGN": 101010201,
        "FGSBGN": 1401,
        "REMARK": "GD",
        "id": 998984,
        "creator": "Enygma",
        "creation_method": "manual_delineation"
      },
      "geometry": {
        "type": "Polygon",
        "coordinates": [
          [
            [
              119.41457946785378,
              -5.148803819148115
            ],
            [
              119.41458092484832,
              -5.14887713414984
            ],
            [
              119.41463295184964,
              -5.148876096153691
            ],
            [
              119.41463451684388,
              -5.148954863155552
            ],
            [
              119.41458248884261,
              -5.148955902151614
            ],
            [
              119.41458297584074,
              -5.148980403152257
            ],
            [
              119.41471613984397,
              -5.148977744162059
            ],
            [
              119.414719144844,
              -5.148977704162276
            ],
            [
              119.41471818684643,
              -5.148945064161549
            ],
            [
              119.41473572984687,
              -5.148944714162817
            ],
            [
              119.41473310585664,
              -5.148812577159831
            ],
            [
              119.41471728485611,
              -5.148813891158613
            ],
            [
              119.41459908185269,
              -5.14882370415005
            ],
            [
              119.41459763585398,
              -5.148806194149534
            ],
            [
              119.41458048685352,
              -5.14880761714832
            ],
            [
              119.41458017185369,
              -5.148803804148164
            ],
            [
              119.41457946785378,
              -5.148803819148115
            ]
          ]
        ]
      }
    },
    {
      "type": "Feature",
      "properties": {
        "OBJECTID": 998985,
        "JNSBGN": 101010201,
        "FGSBGN": 1401,
        "REMARK": "GD",
        "id": 998985,
        "creator": "Enygma",
        "creation_method": "manual_delineation"
      },
      "geometry": {
        "type": "Polygon",
        "coordinates": [
          [
            [
              119.41471818684643,
              -5.148945064161549
            ],
            [
              119.414719144844,
              -5.148977704162276
            ],
            [
              119.41472016784145,
              -5.149012533163149
            ],
            [
              119.4148088258435,
              -5.149011533169725
            ],
            [
              119.41480911184419,
              -5.149003824169563
            ],
            [
              119.41486068984537,
              -5.149003824173398
            ],
            [
              119.41486027084689,
              -5.148982717172939
            ],
            [
              119.4148599908479,
              -5.148968594172596
            ],
            [
              119.41485946784981,
              -5.148942243171935
            ],
            [
              119.41482606584908,
              -5.148942910169525
            ],
            [
              119.41473572984687,
              -5.148944714162817
            ],
            [
              119.41471818684643,
              -5.148945064161549
            ]
          ]
        ]
      }
    },
    {
      "type": "Feature",
      "properties": {
        "OBJECTID": 998986,
        "JNSBGN": 101010201,
        "FGSBGN": 1401,
        "REMARK": "GD",
        "id": 998986,
        "creator": "Enygma",
        "creation_method": "manual_delineation"
      },
      "geometry": {
        "type": "Polygon",
        "coordinates": [
          [
            [
              119.4148248108537,
              -5.148879729168068
            ],
            [
              119.41482606584908,
              -5.148942910169525
            ],
            [
              119.41485946784981,
              -5.148942243171935
            ],
            [
              119.4148599908479,
              -5.148968594172596
            ],
            [
              119.41487068084813,
              -5.14896877417341
            ],
            [
              119.41487096984714,
              -5.148982503173709
            ],
            [
              119.41487096584693,
              -5.148985645173772
            ],
            [
              119.41488667084734,
              -5.148985822174959
            ],
            [
              119.41488702084598,
              -5.149003443175316
            ],
            [
              119.41492058084681,
              -5.149002772177832
            ],
            [
              119.41491912285217,
              -5.148929362176181
            ],
            [
              119.41489124885139,
              -5.148929918174076
            ],
            [
              119.41489022585529,
              -5.148878423172885
            ],
            [
              119.4148248108537,
              -5.148879729168068
            ]
          ]
        ]
      }
    },
    {
      "type": "Feature",
      "properties": {
        "OBJECTID": 998990,
        "JNSBGN": 101010102,
        "FGSBGN": 204,
        "REMARK": "GD",
        "id": 998990,
        "creator": "Enygma",
        "creation_method": "manual_delineation"
      },
      "geometry": {
        "type": "Polygon",
        "coordinates": [
          [
            [
              119.4146675628275,
              -5.149186388163011
            ],
            [
              119.41475746782957,
              -5.149185334169677
            ],
            [
              119.41475535482766,
              -5.14920932317007
            ],
            [
              119.41474918082645,
              -5.14922457616996
            ],
            [
              119.41473329782413,
              -5.149251315169265
            ],
            [
              119.41472408282158,
              -5.149282193169318
            ],
            [
              119.41472105681999,
              -5.149303992169595
            ],
            [
              119.41472025981822,
              -5.149328006169999
            ],
            [
              119.41472481881593,
              -5.149359559170972
            ],
            [
              119.41472845281505,
              -5.149373062171588
            ],
            [
              119.41474632381325,
              -5.149402341173576
            ],
            [
              119.414743667813,
              -5.149404574173434
            ],
            [
              119.414728536813,
              -5.149400685172258
            ],
            [
              119.41471700181035,
              -5.14943354417208
            ],
            [
              119.41473972381006,
              -5.149443238173895
            ],
            [
              119.41474669980934,
              -5.149454572174709
            ],
            [
              119.41521474681907,
              -5.149468135209772
            ],
            [
              119.41525514181996,
              -5.14946930621281
            ],
            [
              119.41525402882291,
              -5.149427802211854
            ],
            [
              119.41526870682328,
              -5.149426920212942
            ],
            [
              119.41547234482702,
              -5.149438484228315
            ],
            [
              119.41547413482786,
              -5.149428475228292
            ],
            [
              119.41547402283001,
              -5.149398987227599
            ],
            [
              119.41548278083131,
              -5.149384584227903
            ],
            [
              119.4154949868332,
              -5.149362267228343
            ],
            [
              119.41549959683472,
              -5.149343496228323
            ],
            [
              119.41550014283555,
              -5.149332944228147
            ],
            [
              119.41549775883631,
              -5.149321818227698
            ],
            [
              119.41548953883782,
              -5.149298877226554
            ],
            [
              119.41546093884152,
              -5.149239647223213
            ],
            [
              119.41545503184271,
              -5.149222119222364
            ],
            [
              119.4154582938442,
              -5.14920204822211
            ],
            [
              119.41548647584678,
              -5.149177226223655
            ],
            [
              119.41549232284746,
              -5.149169029223943
            ],
            [
              119.41549946884832,
              -5.149159193224246
            ],
            [
              119.41550367884905,
              -5.149150349224347
            ],
            [
              119.41550430484966,
              -5.149143153224261
            ],
            [
              119.41550491185063,
              -5.149131053224022
            ],
            [
              119.41550422485123,
              -5.149121901223811
            ],
            [
              119.41549830585187,
              -5.149110807223191
            ],
            [
              119.41549449885214,
              -5.149106809222757
            ],
            [
              119.41546464085262,
              -5.149091069220225
            ],
            [
              119.41544313285388,
              -5.149067372218102
            ],
            [
              119.41543601285447,
              -5.149057449217338
            ],
            [
              119.4154308858545,
              -5.149056071216902
            ],
            [
              119.4154229738542,
              -5.149057033216322
            ],
            [
              119.41536288785164,
              -5.149072201212197
            ],
            [
              119.41525143485022,
              -5.149058027203584
            ],
            [
              119.41510323184671,
              -5.149060200192614
            ],
            [
              119.41510199084664,
              -5.149060620192565
            ],
            [
              119.41494236484161,
              -5.149078780181084
            ],
            [
              119.41484148483906,
              -5.149082337173688
            ],
            [
              119.41480604983909,
              -5.14907083317083
            ],
            [
              119.41478685383899,
              -5.14906692316926
            ],
            [
              119.41477487083874,
              -5.149067248168402
            ],
            [
              119.41476425383786,
              -5.149074616167762
            ],
            [
              119.4147582608371,
              -5.149083691167552
            ],
            [
              119.41470443283566,
              -5.149086700163598
            ],
            [
              119.41470542883083,
              -5.149151679165134
            ],
            [
              119.41466815783002,
              -5.149151766162283
            ],
            [
              119.4146675628275,
              -5.149186388163011
            ]
          ]
        ]
      }
    },
    {
      "type": "Feature",
      "properties": {
        "OBJECTID": 998991,
        "JNSBGN": 101010201,
        "FGSBGN": 1401,
        "REMARK": "GD",
        "id": 998991,
        "creator": "Enygma",
        "creation_method": "manual_delineation"
      },
      "geometry": {
        "type": "Polygon",
        "coordinates": [
          [
            [
              119.41512250080754,
              -5.14959569820576
            ],
            [
              119.41512322680332,
              -5.14965249720704
            ],
            [
              119.41518332580446,
              -5.149655373211543
            ],
            [
              119.4151840398073,
              -5.149617302210727
            ],
            [
              119.41517374880708,
              -5.149617242210042
            ],
            [
              119.41517374680721,
              -5.149615249209925
            ],
            [
              119.41513906780646,
              -5.149614565207363
            ],
            [
              119.41513918680783,
              -5.149596303206974
            ],
            [
              119.41512250080754,
              -5.14959569820576
            ]
          ]
        ]
      }
    },
    {
      "type": "Feature",
      "properties": {
        "OBJECTID": 998992,
        "JNSBGN": 101010201,
        "FGSBGN": 1401,
        "REMARK": "GD",
        "id": 998992,
        "creator": "Enygma",
        "creation_method": "manual_delineation"
      },
      "geometry": {
        "type": "Polygon",
        "coordinates": [
          [
            [
              119.41518734080464,
              -5.149655494211854
            ],
            [
              119.415208906805,
              -5.149656235213447
            ],
            [
              119.41520946980866,
              -5.14960595421241
            ],
            [
              119.41518778680822,
              -5.149606146210816
            ],
            [
              119.41518734080464,
              -5.149655494211854
            ]
          ]
        ]
      }
    },
    {
      "type": "Feature",
      "properties": {
        "OBJECTID": 998993,
        "JNSBGN": 101010106,
        "FGSBGN": 601,
        "REMARK": "MJD",
        "id": 998993,
        "creator": "Enygma",
        "creation_method": "manual_delineation"
      },
      "geometry": {
        "type": "Polygon",
        "coordinates": [
          [
            [
              119.41518413678077,
              -5.149974603218573
            ],
            [
              119.41524224378252,
              -5.149970463222817
            ],
            [
              119.41524309978496,
              -5.149937484222098
            ],
            [
              119.41524695478527,
              -5.149934628222353
            ],
            [
              119.41524752578682,
              -5.14991364122189
            ],
            [
              119.41523543778729,
              -5.14990421922081
            ],
            [
              119.41522563478725,
              -5.149901935220018
            ],
            [
              119.41521173878641,
              -5.149907836219159
            ],
            [
              119.41521248678771,
              -5.149891302218819
            ],
            [
              119.4153301847897,
              -5.149899986227766
            ],
            [
              119.41533389279346,
              -5.149849459227025
            ],
            [
              119.41534810079382,
              -5.149850507228103
            ],
            [
              119.41535239779988,
              -5.149769110226581
            ],
            [
              119.41535738780001,
              -5.14976939522698
            ],
            [
              119.41535915380345,
              -5.149722731226147
            ],
            [
              119.41536295380735,
              -5.149670941225191
            ],
            [
              119.4152032748047,
              -5.149659160213154
            ],
            [
              119.41518637778725,
              -5.149889375216852
            ],
            [
              119.41518775078728,
              -5.149889476216966
            ],
            [
              119.41518413678077,
              -5.149974603218573
            ]
          ]
        ]
      }
    },
    {
      "type": "Feature",
      "properties": {
        "OBJECTID": 998994,
        "JNSBGN": 101010201,
        "FGSBGN": 1401,
        "REMARK": "GD",
        "id": 998994,
        "creator": "Enygma",
        "creation_method": "manual_delineation"
      },
      "geometry": {
        "type": "Polygon",
        "coordinates": [
          [
            [
              119.41534180178667,
              -5.149944295229618
            ],
            [
              119.41538442978754,
              -5.149945175232791
            ],
            [
              119.41538785579277,
              -5.149875885231578
            ],
            [
              119.41542288179356,
              -5.149877027234214
            ],
            [
              119.41542396079552,
              -5.149849390233628
            ],
            [
              119.41544446179593,
              -5.149850170235233
            ],
            [
              119.41544313379323,
              -5.149887241235898
            ],
            [
              119.41546752279382,
              -5.149887687237758
            ],
            [
              119.4154690397965,
              -5.14985110423707
            ],
            [
              119.4155787817986,
              -5.149855277245308
            ],
            [
              119.41558165380223,
              -5.149807258244414
            ],
            [
              119.41559459780257,
              -5.149806687245407
            ],
            [
              119.41559770480816,
              -5.149731802244031
            ],
            [
              119.41535915380345,
              -5.149722731226147
            ],
            [
              119.41535738780001,
              -5.14976939522698
            ],
            [
              119.41535239779988,
              -5.149769110226581
            ],
            [
              119.41534810079382,
              -5.149850507228103
            ],
            [
              119.41534180178667,
              -5.149944295229618
            ]
          ]
        ]
      }
    },
    {
      "type": "Feature",
      "properties": {
        "OBJECTID": 998995,
        "JNSBGN": 101010201,
        "FGSBGN": 1401,
        "REMARK": "GD",
        "id": 998995,
        "creator": "Enygma",
        "creation_method": "manual_delineation"
      },
      "geometry": {
        "type": "Polygon",
        "coordinates": [
          [
            [
              119.41547864479239,
              -5.149908502238983
            ],
            [
              119.41547947779057,
              -5.149934320239699
            ],
            [
              119.41554146179234,
              -5.149930274244152
            ],
            [
              119.4155405437941,
              -5.149905763243568
            ],
            [
              119.41547864479239,
              -5.149908502238983
            ]
          ]
        ]
      }
    },
    {
      "type": "Feature",
      "properties": {
        "OBJECTID": 998996,
        "JNSBGN": 101010201,
        "FGSBGN": 1401,
        "REMARK": "GD",
        "id": 998996,
        "creator": "Enygma",
        "creation_method": "manual_delineation"
      },
      "geometry": {
        "type": "Polygon",
        "coordinates": [
          [
            [
              119.41485920277589,
              -5.149941354193693
            ],
            [
              119.41493586977722,
              -5.149947139199465
            ],
            [
              119.4149340207736,
              -5.149996017200437
            ],
            [
              119.41506493477723,
              -5.149987282209969
            ],
            [
              119.41517645278026,
              -5.149981122218151
            ],
            [
              119.41518376478864,
              -5.149870122216248
            ],
            [
              119.4150022997854,
              -5.149858107202564
            ],
            [
              119.4150030547846,
              -5.149868679202749
            ],
            [
              119.41496054678345,
              -5.149871730199727
            ],
            [
              119.4149591127848,
              -5.149851649199124
            ],
            [
              119.41493303678422,
              -5.149853521197201
            ],
            [
              119.41486466578223,
              -5.149858426192273
            ],
            [
              119.41485920277589,
              -5.149941354193693
            ]
          ]
        ]
      }
    },
    {
      "type": "Feature",
      "properties": {
        "OBJECTID": 1000481,
        "JNSBGN": 101010201,
        "FGSBGN": 1401,
        "REMARK": "GD",
        "id": 1000481,
        "creator": "Enygma",
        "creation_method": "manual_delineation"
      },
      "geometry": {
        "type": "Polygon",
        "coordinates": [
          [
            [
              119.41510806485016,
              -5.149014532192021
            ],
            [
              119.4151081648488,
              -5.149031516192382
            ],
            [
              119.41520670085126,
              -5.149030071199736
            ],
            [
              119.41520630085249,
              -5.149012571199298
            ],
            [
              119.41510806485016,
              -5.149014532192021
            ]
          ]
        ]
      }
    },
    {
      "type": "Feature",
      "properties": {
        "OBJECTID": 1000858,
        "JNSBGN": 101010201,
        "FGSBGN": 1401,
        "REMARK": "GD",
        "id": 1000858,
        "creator": "Enygma",
        "creation_method": "manual_delineation"
      },
      "geometry": {
        "type": "Polygon",
        "coordinates": [
          [
            [
              119.41485585277181,
              -5.149996468194585
            ],
            [
              119.4149159487734,
              -5.149993370198995
            ],
            [
              119.41491548777533,
              -5.149966109198422
            ],
            [
              119.41485750377399,
              -5.14996713719413
            ],
            [
              119.41485585277181,
              -5.149996468194585
            ]
          ]
        ]
      }
    }
  ]
}
